{"type": "FeatureCollection", "features": [ {"type": "Feature", "properties": {"norad_id": 31841, "name": "FENGYUN 1C DEB", "group": "fengyun-1c-debris", "lat": 59.97425032784652, "lon": 150.81528331094654, "alt_km": 1060.727116703576, "timestamp": "2025-12-23T16:57:12.637181+00:00", "meta": {"OBJECT_NAME": "FENGYUN 1C DEB", "OBJECT_ID": "1999-025CJF", "EPOCH": "2025-12-20T17:06:06.055776", "MEAN_MOTION": 14.03626742, "ECCENTRICITY": 0.03086895, "INCLINATION": 98.4167, "RA_OF_ASC_NODE": 162.8817, "ARG_OF_PERICENTER": 282.8098, "MEAN_ANOMALY": 136.7596, "EPHEMERIS_TYPE": 0, "CLASSIFICATION_TYPE": "U", "NORAD_CAT_ID": 31841, "ELEMENT_SET_NO": 999, "REV_AT_EPOCH": 59451, "BSTAR": 0.0011379131, "MEAN_MOTION_DOT": 2.684e-05, "MEAN_MOTION_DDOT": 0}, "tle": {"line1": "1 31841U 99025CJF 25354.71257009  .00002684  00000+0  11379-2 0  9994", "line2": "2 31841  98.4167 162.8817 0308689 282.8098 136.7596 14.03626742594514"}}, "geometry": {"type": "Point", "coordinates": [150.81528331094654, 59.97425032784652]}}, {"type": "Feature", "properties": {"norad_id": 31843, "name": "FENGYUN 1C DEB", "group": "fengyun-1c-debris", "lat": 20.192752519627547, "lon": -65.99227981799918, "alt_km": 826.5548582224292, "timestamp": "2025-12-23T16:57:12.637192+00:00", "meta": {"OBJECT_NAME": "FENGYUN 1C DEB", "OBJECT_ID": "1999-025CJH", "EPOCH": "2025-12-16T15:40:09.812640", "MEAN_MOTION": 13.33949191, "ECCENTRICITY": 0.06398792, "INCLINATION": 99.2827, "RA_OF_ASC_NODE": 291.0118, "ARG_OF_PERICENTER": 344.4578, "MEAN_ANOMALY": 13.7684, "EPHEMERIS_TYPE": 0, "CLASSIFICATION_TYPE": "U", "NORAD_CAT_ID": 31843, "ELEMENT_SET_NO": 999, "REV_AT_EPOCH": 64748, "BSTAR": 0.0054292253, "MEAN_MOTION_DOT": 8.684e-05, "MEAN_MOTION_DDOT": 0}, "tle": {"line1": "1 31843U 99025CJH 25350.65289135  .00008684  00000+0  54292-2 0  9997", "line2": "2 31843  99.2827 291.0118 0639879 344.4578  13.7684 13.33949191647488"}}, "geometry": {"type": "Point", "coordinates": [-65.99227981799918, 20.192752519627547]}}, {"type": "Feature", "properties": {"norad_id": 31844, "name": "FENGYUN 1C DEB", "group": "fengyun-1c-debris", "lat": -75.56743743179133, "lon": 123.17935308088614, "alt_km": 796.8318706057626, "timestamp": "2025-12-23T16:57:12.637202+00:00", "meta": {"OBJECT_NAME": "FENGYUN 1C DEB", "OBJECT_ID": "1999-025CJJ", "EPOCH": "2025-12-22T05:53:58.080768", "MEAN_MOTION": 14.19786515, "ECCENTRICITY": 0.01031911, "INCLINATION": 100.3025, "RA_OF_ASC_NODE": 346.4534, "ARG_OF_PERICENTER": 324.9556, "MEAN_ANOMALY": 34.4854, "EPHEMERIS_TYPE": 0, "CLASSIFICATION_TYPE": "U", "NORAD_CAT_ID": 31844, "ELEMENT_SET_NO": 999, "REV_AT_EPOCH": 95467, "BSTAR": 0.00090434906, "MEAN_MOTION_DOT": 1.963e-05, "MEAN_MOTION_DDOT": 0}, "tle": {"line1": "1 31844U 99025CJJ 25356.24581112  .00001963  00000+0  90435-3 0  9992", "line2": "2 31844 100.3025 346.4534 0103191 324.9556  34.4854 14.19786515954677"}}, "geometry": {"type": "Point", "coordinates": [123.17935308088614, -75.56743743179133]}}, {"type": "Feature", "properties": {"norad_id": 31850, "name": "FENGYUN 1C DEB", "group": "fengyun-1c-debris", "lat": -52.3740153517131, "lon": 55.319598961395606, "alt_km": 478.86498601348194, "timestamp": "2025-12-23T16:57:12.637213+00:00", "meta": {"OBJECT_NAME": "FENGYUN 1C DEB", "OBJECT_ID": "1999-025CJQ", "EPOCH": "2025-12-14T09:23:04.476192", "MEAN_MOTION": 15.33433546, "ECCENTRICITY": 0.00762245, "INCLINATION": 98.5734, "RA_OF_ASC_NODE": 33.2199, "ARG_OF_PERICENTER": 83.7911, "MEAN_ANOMALY": 277.2005, "EPHEMERIS_TYPE": 0, "CLASSIFICATION_TYPE": "U", "NORAD_CAT_ID": 31850, "ELEMENT_SET_NO": 999, "REV_AT_EPOCH": 65854, "BSTAR": 0.0030655456, "MEAN_MOTION_DOT": 0.00109983, "MEAN_MOTION_DDOT": 0}, "tle": {"line1": "1 31850U 99025CJQ 25348.39102403  .00109983  00000+0  30655-2 0  9996", "line2": "2 31850  98.5734  33.2199 0076224  83.7911 277.2005 15.33433546658540"}}, "geometry": {"type": "Point", "coordinates": [55.319598961395606, -52.3740153517131]}}, {"type": "Feature", "properties": {"norad_id": 31854, "name": "FENGYUN 1C DEB", "group": "fengyun-1c-debris", "lat": -81.08043640413506, "lon": 83.56538783219041, "alt_km": 939.8620340527959, "timestamp": "2025-12-23T16:57:12.637223+00:00", "meta": {"OBJECT_NAME": "FENGYUN 1C DEB", "OBJECT_ID": "1999-025CJU", "EPOCH": "2025-12-21T17:27:39.191616", "MEAN_MOTION": 14.03088921, "ECCENTRICITY": 0.00723413, "INCLINATION": 98.848, "RA_OF_ASC_NODE": 358.6778, "ARG_OF_PERICENTER": 116.2745, "MEAN_ANOMALY": 244.5878, "EPHEMERIS_TYPE": 0, "CLASSIFICATION_TYPE": "U", "NORAD_CAT_ID": 31854, "ELEMENT_SET_NO": 999, "REV_AT_EPOCH": 69398, "BSTAR": 0.00055936664, "MEAN_MOTION_DOT": 8.48e-06, "MEAN_MOTION_DDOT": 0}, "tle": {"line1": "1 31854U 99025CJU 25355.72753694  .00000848  00000+0  55937-3 0  9990", "line2": "2 31854  98.8480 358.6778 0072341 116.2745 244.5878 14.03088921693986"}}, "geometry": {"type": "Point", "coordinates": [83.56538783219041, -81.08043640413506]}}, {"type": "Feature", "properties": {"norad_id": 31857, "name": "FENGYUN 1C DEB", "group": "fengyun-1c-debris", "lat": -28.391379039060745, "lon": -160.0661507780587, "alt_km": 863.5410615363189, "timestamp": "2025-12-23T16:57:12.637234+00:00", "meta": {"OBJECT_NAME": "FENGYUN 1C DEB", "OBJECT_ID": "1999-025CJX", "EPOCH": "2025-12-21T19:49:30.664704", "MEAN_MOTION": 13.61956441, "ECCENTRICITY": 0.03096802, "INCLINATION": 96.1878, "RA_OF_ASC_NODE": 22.0982, "ARG_OF_PERICENTER": 256.7702, "MEAN_ANOMALY": 99.8737, "EPHEMERIS_TYPE": 0, "CLASSIFICATION_TYPE": "U", "NORAD_CAT_ID": 31857, "ELEMENT_SET_NO": 999, "REV_AT_EPOCH": 61753, "BSTAR": 0.0014310612, "MEAN_MOTION_DOT": 1.495e-05, "MEAN_MOTION_DDOT": 0}, "tle": {"line1": "1 31857U 99025CJX 25355.82604936  .00001495  00000+0  14311-2 0  9997", "line2": "2 31857  96.1878  22.0982 0309680 256.7702  99.8737 13.61956441617538"}}, "geometry": {"type": "Point", "coordinates": [-160.0661507780587, -28.391379039060745]}}, {"type": "Feature", "properties": {"norad_id": 31861, "name": "FENGYUN 1C DEB", "group": "fengyun-1c-debris", "lat": 14.026440564357475, "lon": -170.61855644628235, "alt_km": 1505.6646347517753, "timestamp": "2025-12-23T16:57:12.637244+00:00", "meta": {"OBJECT_NAME": "FENGYUN 1C DEB", "OBJECT_ID": "1999-025CKB", "EPOCH": "2025-12-22T08:23:07.626048", "MEAN_MOTION": 13.30350862, "ECCENTRICITY": 0.04925861, "INCLINATION": 102.3403, "RA_OF_ASC_NODE": 190.8894, "ARG_OF_PERICENTER": 184.0314, "MEAN_ANOMALY": 175.6758, "EPHEMERIS_TYPE": 0, "CLASSIFICATION_TYPE": "U", "NORAD_CAT_ID": 31861, "ELEMENT_SET_NO": 999, "REV_AT_EPOCH": 66895, "BSTAR": 0.0023684948, "MEAN_MOTION_DOT": 2.121e-05, "MEAN_MOTION_DDOT": 0}, "tle": {"line1": "1 31861U 99025CKB 25356.34939382  .00002121  00000+0  23685-2 0  9997", "line2": "2 31861 102.3403 190.8894 0492586 184.0314 175.6758 13.30350862668952"}}, "geometry": {"type": "Point", "coordinates": [-170.61855644628235, 14.026440564357475]}}, {"type": "Feature", "properties": {"norad_id": 31877, "name": "FENGYUN 1C DEB", "group": "fengyun-1c-debris", "lat": 71.7311891996206, "lon": -81.61750006672935, "alt_km": 607.1533341357635, "timestamp": "2025-12-23T16:57:12.637253+00:00", "meta": {"OBJECT_NAME": "FENGYUN 1C DEB", "OBJECT_ID": "1999-025CKC", "EPOCH": "2025-12-22T10:05:32.318016", "MEAN_MOTION": 15.01738491, "ECCENTRICITY": 0.01040219, "INCLINATION": 99.0051, "RA_OF_ASC_NODE": 68.1809, "ARG_OF_PERICENTER": 247.3975, "MEAN_ANOMALY": 111.6215, "EPHEMERIS_TYPE": 0, "CLASSIFICATION_TYPE": "U", "NORAD_CAT_ID": 31877, "ELEMENT_SET_NO": 999, "REV_AT_EPOCH": 99187, "BSTAR": 0.0010146839, "MEAN_MOTION_DOT": 0.00014775, "MEAN_MOTION_DDOT": 0}, "tle": {"line1": "1 31877U 99025CKC 25356.42051294  .00014775  00000+0  10147-2 0  9997", "line2": "2 31877  99.0051  68.1809 0104021 247.3975 111.6215 15.01738491991879"}}, "geometry": {"type": "Point", "coordinates": [-81.61750006672935, 71.7311891996206]}}, {"type": "Feature", "properties": {"norad_id": 31878, "name": "FENGYUN 1C DEB", "group": "fengyun-1c-debris", "lat": 66.9021673806635, "lon": -99.67580252115923, "alt_km": 644.4634407602398, "timestamp": "2025-12-23T16:57:12.637266+00:00", "meta": {"OBJECT_NAME": "FENGYUN 1C DEB", "OBJECT_ID": "1999-025CKD", "EPOCH": "2025-12-21T12:55:43.069152", "MEAN_MOTION": 14.86026303, "ECCENTRICITY": 0.0083415, "INCLINATION": 99.4418, "RA_OF_ASC_NODE": 280.7207, "ARG_OF_PERICENTER": 210.3879, "MEAN_ANOMALY": 149.2482, "EPHEMERIS_TYPE": 0, "CLASSIFICATION_TYPE": "U", "NORAD_CAT_ID": 31878, "ELEMENT_SET_NO": 999, "REV_AT_EPOCH": 98224, "BSTAR": 0.00093453, "MEAN_MOTION_DOT": 8.633e-05, "MEAN_MOTION_DDOT": 0}, "tle": {"line1": "1 31878U 99025CKD 25355.53869293  .00008633  00000+0  93453-3 0  9993", "line2": "2 31878  99.4418 280.7207 0083415 210.3879 149.2482 14.86026303982249"}}, "geometry": {"type": "Point", "coordinates": [-99.67580252115923, 66.9021673806635]}}, {"type": "Feature", "properties": {"norad_id": 31879, "name": "FENGYUN 1C DEB", "group": "fengyun-1c-debris", "lat": -41.960856345865025, "lon": -113.44976750010976, "alt_km": 653.003118222271, "timestamp": "2025-12-23T16:57:12.637276+00:00", "meta": {"OBJECT_NAME": "FENGYUN 1C DEB", "OBJECT_ID": "1999-025CKE", "EPOCH": "2025-12-22T02:52:04.689408", "MEAN_MOTION": 14.42929876, "ECCENTRICITY": 0.02096328, "INCLINATION": 99.7075, "RA_OF_ASC_NODE": 235.8895, "ARG_OF_PERICENTER": 9.6265, "MEAN_ANOMALY": 350.8843, "EPHEMERIS_TYPE": 0, "CLASSIFICATION_TYPE": "U", "NORAD_CAT_ID": 31879, "ELEMENT_SET_NO": 999, "REV_AT_EPOCH": 63345, "BSTAR": 0.0003150512, "MEAN_MOTION_DOT": 1.306e-05, "MEAN_MOTION_DDOT": 0}, "tle": {"line1": "1 31879U 99025CKE 25356.11949872  .00001306  00000+0  31505-3 0  9991", "line2": "2 31879  99.7075 235.8895 0209632   9.6265 350.8843 14.42929876633451"}}, "geometry": {"type": "Point", "coordinates": [-113.44976750010976, -41.960856345865025]}}]}